start=new Date('2022-02-23T00:00:00.000Z').valueOf();
sats=[{"MEAN_MOTION":"15.62746084","PERIAPSIS":"379.004","REF_FRAME":"TEME","EPOCH":"2022-02-22T22:00:00.999936","PERIOD":"92.145","RA_OF_ASC_NODE":"102.1093","APOAPSIS":"380.458","RCS_SIZE":"LARGE","MEAN_ELEMENT_THEORY":"SGP4","DECAY_DATE":null,"NORAD_CAT_ID":"51151","OBJECT_TYPE":"PAYLOAD","MEAN_MOTION_DDOT":"0.0000000000000","CLASSIFICATION_TYPE":"U","OBJECT_ID":"2022-005AZ","INCLINATION":"53.2176","BSTAR":"-0.00778480000000","CENTER_NAME":"EARTH","SEMIMAJOR_AXIS":"6757.866","TLE_LINE2":"2 51151  53.2176 102.1093 0001076  69.0782 282.5356 15.62746084  3682","EPHEMERIS_TYPE":"0","ELEMENT_SET_NO":"999","SITE":"AFETR","MEAN_MOTION_DOT":"-0.00658013","TLE_LINE1":"1 51151U 22005AZ  22053.91667824 -.00658013  00000-0 -77848-2 0  9998","MEAN_ANOMALY":"282.5356","OBJECT_NAME":"STARLINK-3361","COUNTRY_CODE":"US","ARG_OF_PERICENTER":"69.0782","REV_AT_EPOCH":"368","LAUNCH_DATE":"2022-01-19","TIME_SYSTEM":"UTC","FILE":"3314780","ECCENTRICITY":"0.00010760","GP_ID":"196687939"},{"INCLINATION":"53.2176","OBJECT_ID":"2022-005BA","CENTER_NAME":"EARTH","BSTAR":"-0.00782020000000","TLE_LINE2":"2 51152  53.2176 102.1100 0001064  69.4446 278.3732 15.62629093  3681","SEMIMAJOR_AXIS":"6758.203","SITE":"AFETR","MEAN_MOTION_DOT":"-0.00657972","ELEMENT_SET_NO":"999","EPHEMERIS_TYPE":"0","OBJECT_NAME":"STARLINK-3364","MEAN_ANOMALY":"278.3732","TLE_LINE1":"1 51152U 22005BA  22053.91667824 -.00657972  00000-0 -78202-2 0  9997","COUNTRY_CODE":"US","ARG_OF_PERICENTER":"69.4446","REV_AT_EPOCH":"368","LAUNCH_DATE":"2022-01-19","TIME_SYSTEM":"UTC","FILE":"3314780","ECCENTRICITY":"0.00010640","GP_ID":"196687416","MEAN_MOTION":"15.62629093","PERIAPSIS":"379.349","REF_FRAME":"TEME","EPOCH":"2022-02-22T22:00:00.999936","PERIOD":"92.152","RA_OF_ASC_NODE":"102.1100","APOAPSIS":"380.787","MEAN_ELEMENT_THEORY":"SGP4","RCS_SIZE":"LARGE","DECAY_DATE":null,"NORAD_CAT_ID":"51152","OBJECT_TYPE":"PAYLOAD","CLASSIFICATION_TYPE":"U","MEAN_MOTION_DDOT":"0.0000000000000"},{"BSTAR":"0.00023992000000","CENTER_NAME":"EARTH","SEMIMAJOR_AXIS":"6727.933","TLE_LINE2":"2 51460  53.2175  77.3252 0001360  57.7942 274.2380 15.73186597  2405","INCLINATION":"53.2175","OBJECT_ID":"2022-010E","MEAN_ANOMALY":"274.2380","TLE_LINE1":"1 51460U 22010E   22053.91667824  .00033165  00000-0  23992-3 0  9992","OBJECT_NAME":"STARLINK-3167","COUNTRY_CODE":"US","EPHEMERIS_TYPE":"0","SITE":"AFETR","ELEMENT_SET_NO":"999","MEAN_MOTION_DOT":"0.00033165","REV_AT_EPOCH":"240","LAUNCH_DATE":"2022-02-03","ARG_OF_PERICENTER":"57.7942","ECCENTRICITY":"0.00013600","GP_ID":"196687787","FILE":"3314780","TIME_SYSTEM":"UTC","REF_FRAME":"TEME","MEAN_MOTION":"15.73186597","PERIAPSIS":"348.883","APOAPSIS":"350.713","EPOCH":"2022-02-22T22:00:00.999936","RA_OF_ASC_NODE":"77.3252","PERIOD":"91.534","NORAD_CAT_ID":"51460","RCS_SIZE":"MEDIUM","MEAN_ELEMENT_THEORY":"SGP4","DECAY_DATE":null,"MEAN_MOTION_DDOT":"0.0000000000000","CLASSIFICATION_TYPE":"U","OBJECT_TYPE":"PAYLOAD"},{"GP_ID":"196687542","ECCENTRICITY":"0.00013420","TIME_SYSTEM":"UTC","FILE":"3314780","REV_AT_EPOCH":"240","LAUNCH_DATE":"2022-02-03","ARG_OF_PERICENTER":"58.7685","COUNTRY_CODE":"US","OBJECT_NAME":"STARLINK-3181","TLE_LINE1":"1 51461U 22010F   22053.91667824  .00060615  00000-0  43329-3 0  9999","MEAN_ANOMALY":"187.2563","SITE":"AFETR","MEAN_MOTION_DOT":"0.00060615","ELEMENT_SET_NO":"999","EPHEMERIS_TYPE":"0","TLE_LINE2":"2 51461  53.2172  77.5040 0001342  58.7685 187.2563 15.73194468  2407","SEMIMAJOR_AXIS":"6727.911","CENTER_NAME":"EARTH","BSTAR":"0.00043329000000","OBJECT_ID":"2022-010F","INCLINATION":"53.2172","CLASSIFICATION_TYPE":"U","MEAN_MOTION_DDOT":"0.0000000000000","OBJECT_TYPE":"PAYLOAD","NORAD_CAT_ID":"51461","DECAY_DATE":null,"MEAN_ELEMENT_THEORY":"SGP4","RCS_SIZE":"MEDIUM","APOAPSIS":"350.679","RA_OF_ASC_NODE":"77.5040","PERIOD":"91.534","EPOCH":"2022-02-22T22:00:00.999936","REF_FRAME":"TEME","PERIAPSIS":"348.873","MEAN_MOTION":"15.73194468"},{"CLASSIFICATION_TYPE":"U","MEAN_MOTION_DDOT":"0.0000000000000","OBJECT_TYPE":"PAYLOAD","NORAD_CAT_ID":"51462","MEAN_ELEMENT_THEORY":"SGP4","RCS_SIZE":"MEDIUM","DECAY_DATE":null,"APOAPSIS":"350.450","EPOCH":"2022-02-22T22:00:00.999936","PERIOD":"91.533","RA_OF_ASC_NODE":"77.5009","REF_FRAME":"TEME","MEAN_MOTION":"15.73203398","PERIAPSIS":"349.051","ECCENTRICITY":"0.00010400","GP_ID":"196687357","FILE":"3314780","TIME_SYSTEM":"UTC","REV_AT_EPOCH":"240","LAUNCH_DATE":"2022-02-03","ARG_OF_PERICENTER":"60.4519","OBJECT_NAME":"STARLINK-3166","TLE_LINE1":"1 51462U 22010G   22053.91667824  .00056803  00000-0  40635-3 0  9991","MEAN_ANOMALY":"186.2424","COUNTRY_CODE":"US","SITE":"AFETR","MEAN_MOTION_DOT":"0.00056803","ELEMENT_SET_NO":"999","EPHEMERIS_TYPE":"0","CENTER_NAME":"EARTH","BSTAR":"0.00040635000000","TLE_LINE2":"2 51462  53.2165  77.5009 0001040  60.4519 186.2424 15.73203398  2404","SEMIMAJOR_AXIS":"6727.885","INCLINATION":"53.2165","OBJECT_ID":"2022-010G"},{"DECAY_DATE":null,"MEAN_ELEMENT_THEORY":"SGP4","RCS_SIZE":"MEDIUM","NORAD_CAT_ID":"51463","OBJECT_TYPE":"PAYLOAD","CLASSIFICATION_TYPE":"U","MEAN_MOTION_DDOT":"0.0000000000000","PERIAPSIS":"348.741","MEAN_MOTION":"15.73206238","REF_FRAME":"TEME","RA_OF_ASC_NODE":"77.3196","PERIOD":"91.533","EPOCH":"2022-02-22T22:00:00.999936","APOAPSIS":"350.743","ARG_OF_PERICENTER":"42.8860","REV_AT_EPOCH":"240","LAUNCH_DATE":"2022-02-03","FILE":"3314780","TIME_SYSTEM":"UTC","GP_ID":"196688007","ECCENTRICITY":"0.00014880","INCLINATION":"53.2168","OBJECT_ID":"2022-010H","TLE_LINE2":"2 51463  53.2168  77.3196 0001488  42.8860 291.0319 15.73206238  2406","SEMIMAJOR_AXIS":"6727.877","CENTER_NAME":"EARTH","BSTAR":"-0.00007600200000","MEAN_MOTION_DOT":"-0.00011275","SITE":"AFETR","ELEMENT_SET_NO":"999","EPHEMERIS_TYPE":"0","COUNTRY_CODE":"US","OBJECT_NAME":"STARLINK-3419","MEAN_ANOMALY":"291.0319","TLE_LINE1":"1 51463U 22010H   22053.91667824 -.00011275  00000-0 -76002-4 0  9996"},{"RCS_SIZE":"MEDIUM","MEAN_ELEMENT_THEORY":"SGP4","DECAY_DATE":null,"NORAD_CAT_ID":"51464","OBJECT_TYPE":"PAYLOAD","MEAN_MOTION_DDOT":"0.0000000000000","CLASSIFICATION_TYPE":"U","MEAN_MOTION":"15.73161275","PERIAPSIS":"349.098","REF_FRAME":"TEME","EPOCH":"2022-02-22T22:00:00.999936","RA_OF_ASC_NODE":"77.4966","PERIOD":"91.535","APOAPSIS":"350.643","ARG_OF_PERICENTER":"51.0704","REV_AT_EPOCH":"240","LAUNCH_DATE":"2022-02-03","FILE":"3314780","TIME_SYSTEM":"UTC","ECCENTRICITY":"0.00011480","GP_ID":"196687450","OBJECT_ID":"2022-010J","INCLINATION":"53.2156","BSTAR":"0.00067654000000","CENTER_NAME":"EARTH","SEMIMAJOR_AXIS":"6728.006","TLE_LINE2":"2 51464  53.2156  77.4966 0001148  51.0704 196.7882 15.73161275  2409","EPHEMERIS_TYPE":"0","MEAN_MOTION_DOT":"0.00095252","SITE":"AFETR","ELEMENT_SET_NO":"999","TLE_LINE1":"1 51464U 22010J   22053.91667824  .00095252  00000-0  67654-3 0  9994","MEAN_ANOMALY":"196.7882","OBJECT_NAME":"STARLINK-3189","COUNTRY_CODE":"US"},{"ARG_OF_PERICENTER":"40.9762","LAUNCH_DATE":"2022-02-03","REV_AT_EPOCH":"240","FILE":"3314780","TIME_SYSTEM":"UTC","GP_ID":"196687881","ECCENTRICITY":"0.00014690","OBJECT_ID":"2022-010K","INCLINATION":"53.2154","TLE_LINE2":"2 51465  53.2154  77.4950 0001469  40.9762 207.4230 15.73296883  2409","SEMIMAJOR_AXIS":"6727.619","CENTER_NAME":"EARTH","BSTAR":"-0.00012697000000","SITE":"AFETR","ELEMENT_SET_NO":"999","MEAN_MOTION_DOT":"-0.00018475","EPHEMERIS_TYPE":"0","COUNTRY_CODE":"US","OBJECT_NAME":"STARLINK-3401","MEAN_ANOMALY":"207.4230","TLE_LINE1":"1 51465U 22010K   22053.91667824 -.00018475  00000-0 -12697-3 0  9996","DECAY_DATE":null,"MEAN_ELEMENT_THEORY":"SGP4","RCS_SIZE":"MEDIUM","NORAD_CAT_ID":"51465","OBJECT_TYPE":"PAYLOAD","CLASSIFICATION_TYPE":"U","MEAN_MOTION_DDOT":"0.0000000000000","PERIAPSIS":"348.496","MEAN_MOTION":"15.73296883","REF_FRAME":"TEME","RA_OF_ASC_NODE":"77.4950","PERIOD":"91.528","EPOCH":"2022-02-22T22:00:00.999936","APOAPSIS":"350.472"},{"CENTER_NAME":"EARTH","BSTAR":"-0.00024357000000","TLE_LINE2":"2 51467  53.2171  77.3185 0001429  49.2438 285.3446 15.73220335  2400","SEMIMAJOR_AXIS":"6727.837","OBJECT_ID":"2022-010M","INCLINATION":"53.2171","OBJECT_NAME":"STARLINK-3178","MEAN_ANOMALY":"285.3446","TLE_LINE1":"1 51467U 22010M   22053.91667824 -.00034693  00000-0 -24357-3 0  9994","COUNTRY_CODE":"US","ELEMENT_SET_NO":"999","SITE":"AFETR","MEAN_MOTION_DOT":"-0.00034693","EPHEMERIS_TYPE":"0","REV_AT_EPOCH":"240","LAUNCH_DATE":"2022-02-03","ARG_OF_PERICENTER":"49.2438","ECCENTRICITY":"0.00014290","GP_ID":"196687695","TIME_SYSTEM":"UTC","FILE":"3314780","REF_FRAME":"TEME","MEAN_MOTION":"15.73220335","PERIAPSIS":"348.741","APOAPSIS":"350.664","EPOCH":"2022-02-22T22:00:00.999936","RA_OF_ASC_NODE":"77.3185","PERIOD":"91.532","NORAD_CAT_ID":"51467","MEAN_ELEMENT_THEORY":"SGP4","RCS_SIZE":"MEDIUM","DECAY_DATE":null,"CLASSIFICATION_TYPE":"U","MEAN_MOTION_DDOT":"0.0000000000000","OBJECT_TYPE":"PAYLOAD"},{"LAUNCH_DATE":"2022-02-03","REV_AT_EPOCH":"240","ARG_OF_PERICENTER":"57.3729","ECCENTRICITY":"0.00019060","GP_ID":"196687974","TIME_SYSTEM":"UTC","FILE":"3314780","CENTER_NAME":"EARTH","BSTAR":"0.00064815000000","TLE_LINE2":"2 51468  53.2163  77.3218 0001906  57.3729 275.0406 15.73215147  2409","SEMIMAJOR_AXIS":"6727.852","OBJECT_ID":"2022-010N","INCLINATION":"53.2163","OBJECT_NAME":"STARLINK-3174","TLE_LINE1":"1 51468U 22010N   22053.91667824  .00091401  00000-0  64815-3 0  9996","MEAN_ANOMALY":"275.0406","COUNTRY_CODE":"US","MEAN_MOTION_DOT":"0.00091401","SITE":"AFETR","ELEMENT_SET_NO":"999","EPHEMERIS_TYPE":"0","NORAD_CAT_ID":"51468","MEAN_ELEMENT_THEORY":"SGP4","RCS_SIZE":"MEDIUM","DECAY_DATE":null,"CLASSIFICATION_TYPE":"U","MEAN_MOTION_DDOT":"0.0000000000000","OBJECT_TYPE":"PAYLOAD","REF_FRAME":"TEME","MEAN_MOTION":"15.73215147","PERIAPSIS":"348.435","APOAPSIS":"350.999","EPOCH":"2022-02-22T22:00:00.999936","PERIOD":"91.532","RA_OF_ASC_NODE":"77.3218"}];
